[{"OBJECT_NAME":"STARLINK-30849","OBJECT_ID":"2023-171R","EPOCH":"2026-03-09T22:00:01.999584","MEAN_MOTION":15.23663068,"ECCENTRICITY":0.00015687,"INCLINATION":43.0007,"RA_OF_ASC_NODE":283.6405,"ARG_OF_PERICENTER":288.773,"MEAN_ANOMALY":42.2251,"EPHEMERIS_TYPE":0,"CLASSIFICATION_TYPE":"U","NORAD_CAT_ID":58245,"ELEMENT_SET_NO":999,"REV_AT_EPOCH":577,"BSTAR":0.048301601,"MEAN_MOTION_DOT":0.01296338,"MEAN_MOTION_DDOT":0},{"OBJECT_NAME":"LOPEN","OBJECT_ID":"2024-149F","EPOCH":"2026-03-09T17:31:10.682400","MEAN_MOTION":15.36629582,"ECCENTRICITY":8.652e-5,"INCLINATION":97.3812,"RA_OF_ASC_NODE":151.5309,"ARG_OF_PERICENTER":189.0263,"MEAN_ANOMALY":171.0966,"EPHEMERIS_TYPE":0,"CLASSIFICATION_TYPE":"U","NORAD_CAT_ID":60473,"ELEMENT_SET_NO":999,"REV_AT_EPOCH":8697,"BSTAR":0.00048871089,"MEAN_MOTION_DOT":0.00017417,"MEAN_MOTION_DDOT":0}]
